[{"OBJECT_NAME":"STARLINK-6350","OBJECT_ID":"2023-094J","EPOCH":"2026-03-09T22:00:01.999584","MEAN_MOTION":15.13342785,"ECCENTRICITY":5.601e-5,"INCLINATION":43.0016,"RA_OF_ASC_NODE":28.7492,"ARG_OF_PERICENTER":301.6337,"MEAN_ANOMALY":222.0349,"EPHEMERIS_TYPE":0,"CLASSIFICATION_TYPE":"U","NORAD_CAT_ID":57226,"ELEMENT_SET_NO":999,"REV_AT_EPOCH":577,"BSTAR":0.004124811,"MEAN_MOTION_DOT":0.00075399,"MEAN_MOTION_DDOT":0},{"OBJECT_NAME":"COSMOS 1275 DEB","OBJECT_ID":"1981-053PA","EPOCH":"2026-03-08T15:19:20.112672","MEAN_MOTION":15.17408079,"ECCENTRICITY":0.00116181,"INCLINATION":83.059,"RA_OF_ASC_NODE":288.5099,"ARG_OF_PERICENTER":114.3087,"MEAN_ANOMALY":306.5278,"EPHEMERIS_TYPE":0,"CLASSIFICATION_TYPE":"U","NORAD_CAT_ID":39964,"ELEMENT_SET_NO":999,"REV_AT_EPOCH":62291,"BSTAR":0.0038016178,"MEAN_MOTION_DOT":0.00076824,"MEAN_MOTION_DDOT":0}]
